73P-AU/Schwassmann-Wachmann,e,11.385,69.928,198.744,3.06261,0.183894,0.6933024,359.983,06/08.0/2006,2000,g  9.0,4.0
# From MPC 56800
73P-AV/Schwassmann-Wachmann,e,11.388,69.945,198.751,3.06263,0.183892,0.6933024,359.910,06/06.0/2006,2000,g  9.0,4.0
# From MPC 56800
73P-AW/Schwassmann-Wachmann,e,11.377,69.982,198.673,3.06318,0.183843,0.6933024,359.859,06/07.0/2006,2000,g  9.0,4.0
# From MPC 56800
73P-AX/Schwassmann-Wachmann,e,11.388,69.915,198.757,3.06205,0.183944,0.6933024,359.902,06/09.0/2006,2000,g  9.0,4.0
# From MPC 56800
73P-AY/Schwassmann-Wachmann,e,11.385,69.923,198.750,3.06223,0.183927,0.6933024,359.860,06/08.0/2006,2000,g  9.0,4.0
# From MPC 56800
73P-AZ/Schwassmann-Wachmann,e,11.371,70.002,198.644,3.06367,0.183798,0.6933024,359.905,06/06.0/2006,2000,g  9.0,4.0
# From MPC 56800
73P-BA/Schwassmann-Wachmann,e,11.364,70.042,198.588,3.06413,0.183756,0.6933024,359.920,06/06.0/2006,2000,g  9.0,4.0
# From MPC 56800
73P-BB/Schwassmann-Wachmann,e,11.395,69.882,198.807,3.06205,0.183944,0.6933024,359.984,06/07.0/2006,2000,g  9.0,4.0
# From MPC 56800
73P-BC/Schwassmann-Wachmann,e,11.391,69.901,198.778,3.06235,0.183917,0.6933024,359.877,06/06.0/2006,2000,g  9.0,4.0
# From MPC 56800
73P-BD/Schwassmann-Wachmann,e,11.352,70.085,198.503,3.06483,0.183694,0.6933024,359.923,06/06.0/2006,2000,g  9.0,4.0
# From MPC 56800
73P-BE/Schwassmann-Wachmann,e,11.405,69.841,198.861,3.06171,0.183975,0.6933024,359.841,06/06.0/2006,2000,g  9.0,4.0
# From MPC 56800
73P-BF/Schwassmann-Wachmann,e,11.390,69.908,198.752,3.06223,0.183928,0.6933024,359.818,06/06.0/2006,2000,g  9.0,4.0
# From MPC 56800
73P-BG/Schwassmann-Wachmann,e,11.384,69.925,198.750,3.06214,0.183936,0.6933024,359.864,06/08.0/2006,2000,g  9.0,4.0
# From MPC 56801
73P-BH/Schwassmann-Wachmann,e,11.410,69.752,198.947,3.06079,0.184058,0.6933024,359.895,06/08.0/2006,2000,g  9.0,4.0
# From MPC 56801
73P-BI/Schwassmann-Wachmann,e,11.404,69.819,198.877,3.06179,0.183967,0.6933024,359.882,06/08.0/2006,2000,g  9.0,4.0
# From MPC 56801
73P-BJ/Schwassmann-Wachmann,e,11.389,69.905,198.776,3.06209,0.183941,0.6933024,359.877,06/08.0/2006,2000,g  9.0,4.0
# From MPC 56801
73P-BK/Schwassmann-Wachmann,e,11.379,69.970,198.698,3.06264,0.183891,0.6933024,359.837,06/08.0/2006,2000,g  9.0,4.0
# From MPC 56801
73P-BL/Schwassmann-Wachmann,e,11.385,69.930,198.739,3.06239,0.183914,0.6933024,359.837,06/08.0/2006,2000,g  9.0,4.0
# From MPC 56801
73P-BM/Schwassmann-Wachmann,e,11.364,70.086,198.546,3.06367,0.183798,0.6933024,359.827,06/08.0/2006,2000,g  9.0,4.0
# From MPC 56801
73P-BN/Schwassmann-Wachmann,e,11.398,69.871,198.815,3.06180,0.183967,0.6933024,359.963,06/08.0/2006,2000,g  9.0,4.0
# From MPC 56801
73P-BO/Schwassmann-Wachmann,e,11.390,69.903,198.765,3.06206,0.183943,0.6933024,359.952,06/08.0/2006,2000,g  9.0,4.0
# From MPC 56801
73P-BP/Schwassmann-Wachmann,e,11.395,69.881,198.807,3.06196,0.183952,0.6933024,359.944,06/08.0/2006,2000,g  9.0,4.0
# From MPC 56801
73P-BQ/Schwassmann-Wachmann,e,11.404,69.836,198.862,3.06166,0.183979,0.6933024,359.945,06/08.0/2006,2000,g  9.0,4.0
# From MPC 56957
73P-BR/Schwassmann-Wachmann,e,11.389,69.910,198.774,3.06233,0.183918,0.6933024,359.971,06/06.0/2006,2000,g  9.0,4.0
# From MPC 56957
73P-BS/Schwassmann-Wachmann,e,11.399,69.885,198.814,3.06224,0.183927,0.6933024,359.847,06/05.0/2006,2000,g  9.0,4.0
# From MPC106348
73P-BT/Schwassmann-Wachmann,e,11.1457,198.9726,69.7835,3.085880,0.1818174,0.69042697,121.2070,06/26.0/2024,2000,g 11.5,6.0
# From MPEC 2022-P18
73P-BU/Schwassmann-Wachmann,e,11.0348,199.6335,70.6993,2.870709,0.2026378,0.66956192,135.7016,06/26.0/2024,2000,g 19.0,4.0
# From MPEC 2022-X67
73P-BV/Schwassmann-Wachmann,e,11.3489,69.3858,199.0738,3.134830,0.1775755,0.69639763,118.6482,06/26.0/2024,2000,g 19.0,4.0
# From MPEC 2022-R15
73P-BW/Schwassmann-Wachmann,e,10.3372,193.9278,70.8156,4.537994,0.1019549,0.78870307,68.2194,06/26.0/2024,2000,g 18.2,4.0
# From MPEC 2023-A50
73P-BX/Schwassmann-Wachmann,e,11.3604,69.3827,199.1048,3.114623,0.1793064,0.69418676,119.7575,06/26.0/2024,2000,g 17.5,4.0
# From MPEC 2022-R15
73P-BY/Schwassmann-Wachmann,e,11.1302,199.0463,69.8897,3.026963,0.1871515,0.68447462,125.3428,06/26.0/2024,2000,g 17.4,4.0
# From MPEC 2024-EF7
74P/Smirnova-Chernykh,e,6.4504,53.7207,112.1508,4.885715,0.0912666,0.03560431,249.1877,06/26.0/2024,2000,g  5.0,6.0
# From CCO 7
75D/Kohoutek,e,5.9259,269.5527,175.5570,3.537280,0.1481494,0.49938143,178.6295,06/26.0/2024,2000,g  9.5,6.0
# From MPEC 2022-K19
76P/West-Kohoutek-Ikemura,e,30.4881,84.1116,359.9620,3.468768,0.1525602,0.53934133,259.8374,06/26.0/2024,2000,g  8.0,12.0
# From MPEC 2023-TM6
77P/Longmore,e,24.3190,14.7601,196.6703,3.621805,0.1429936,0.35166116,64.3602,06/26.0/2024,2000,g  7.0,8.0
# From MPEC 2021-O56
78P/Gehrels,e,6.2567,210.5297,192.7005,3.735184,0.1365325,0.46318980,260.4682,06/26.0/2024,2000,g  5.5,8.0
# From MPC 94675
79P/du Toit-Hartley,e,3.1489,281.7726,280.5183,2.943508,0.1951670,0.61919559,52.6278,06/26.0/2024,2000,g 16.0,4.0
# From MPEC 2023-RF3
80P/Peters-Hartley,e,29.9245,259.7794,339.2832,4.022675,0.1221607,0.59810198,69.0582,06/26.0/2024,2000,g  9.0,8.0
# From MPEC 2024-F91
81P/Wild,e,3.2370,136.0936,41.5791,3.452497,0.1536399,0.53731588,85.7949,06/26.0/2024,2000,g  7.0,6.0
# From MPC133426
82P/Gehrels,e,1.1292,239.2301,226.4263,4.132102,0.1173404,0.12253181,257.5632,06/26.0/2024,2000,g 15.0,4.0
# From NK 932
83D/Russell,e,17.8268,226.3037,334.4207,3.843857,0.1307836,0.44130641,147.8851,06/26.0/2024,2000,g  9.0,4.0
# From MPEC 2020-FB5
84P/Giclas,e,7.5516,108.1547,281.6612,3.550098,0.1473478,0.51598406,218.3629,06/26.0/2024,2000,g  9.5,8.0
# From unp
85D/Boethin,e,4.1741,65.2848,333.0783,5.044632,0.0869881,0.77624352,124.0991,06/26.0/2024,2000,g  6.5,8.0
# From MPEC 2022-YB4
86P/Wild,e,15.5273,72.0892,180.7527,3.628543,0.1425954,0.36906016,123.8928,06/26.0/2024,2000,g 11.0,6.0
# From MPEC 2020-SI8
87P/Bus,e,2.7167,186.5152,51.4472,4.303616,0.1103961,0.23212141,169.7000,06/26.0/2024,2000,g  7.2,10.0
# From MPEC 2024-C04
88P/Howell,e,4.3820,56.6669,235.9120,3.107443,0.1799282,0.56318486,246.4882,06/26.0/2024,2000,g 11.0,6.0
# From MPEC 2024-M41
89P/Russell,e,12.0721,41.3448,250.4008,3.751147,0.1356619,0.40768988,12.3993,06/26.0/2024,2000,g 11.5,6.0
# From MPEC 2022-K19
90P/Gehrels,e,9.6464,13.2103,29.1288,6.052387,0.0661933,0.51107048,169.4058,06/26.0/2024,2000,g  8.5,6.0
# From MPEC 2023-VM5
91P/Russell,e,16.6562,242.7252,359.3499,3.993536,0.1235002,0.30124984,170.8522,06/26.0/2024,2000,g  7.5,6.0
# From MPEC 2014-J58
92P/Sanguin,e,19.4913,181.3753,163.7999,5.342997,0.0798044,0.66041271,271.0947,06/26.0/2024,2000,g 12.0,6.0
# From NK 2707
93P/Lovas,e,12.2059,339.5726,74.9668,4.376594,0.1076464,0.61402117,287.2495,06/26.0/2024,2000,g  9.0,4.0
# From MPEC 2024-F91
94P/Russell,e,6.1880,70.8519,92.3941,3.510495,0.1498482,0.36572646,60.2327,06/26.0/2024,2000,g  9.0,6.0
# From MPC 75717
95P/Chiron,e,6.9232,209.1983,339.3838,13.70826,0.0194192,0.37708491,202.7125,06/26.0/2024,2000,g  6.5,2.0
# From MPEC 2023-N01
96P/Machholz,e,57.5593,93.9572,14.7396,3.030907,0.1867864,0.96164464,95.6101,06/26.0/2024,2000,g 13.0,4.8
# From MPC106348
96P-B/Machholz,e,57.5032,14.6991,93.9605,3.030067,0.1868640,0.96166147,95.6534,06/26.0/2024,2000,g 13.0,4.8
# From MPC103849
96P-C/Machholz,e,58.5311,94.3495,15.5380,3.011920,0.1885553,0.95889850,359.8715,07/14.0/2012,2000,g  9.0,4.0
# From MPEC 2024-GJ3
97P/Metcalf-Brewington,e,17.9470,184.0803,230.1232,4.767229,0.0946902,0.46026502,81.5255,06/26.0/2024,2000,g  5.5,6.0
# From MPEC 2021-W31
98P/Takamizawa,e,10.5781,114.6152,157.7186,3.788802,0.1336445,0.56303668,169.5964,06/26.0/2024,2000,g  9.0,8.0
# From MPEC 2024-JU4
99P/Kowal,e,4.3392,28.0888,174.6334,6.096194,0.0654811,0.22853294,52.9222,06/26.0/2024,2000,g  4.5,6.0
# From MPEC 2023-OA6
100P/Hartley,e,25.5673,37.6856,181.9632,3.430567,0.1551155,0.41155909,106.3034,06/26.0/2024,2000,g  9.0,8.0
# From MPEC 2024-EF7
101P/Chernykh,e,5.0490,116.1523,277.9081,5.814301,0.0703004,0.59615383,114.2742,06/26.0/2024,2000,g 10.0,4.8
# From MPC105241
101P-B/Chernykh,e,5.0499,278.5356,115.5274,5.829804,0.0700202,0.59636448,112.5742,06/26.0/2024,2000,g  9.0,4.0
# From MPEC 2022-C56
102P/Shoemaker,e,25.8670,339.4088,20.6707,3.818804,0.1320727,0.45649798,165.1785,06/26.0/2024,2000,g  6.5,8.0
# From MPEC 2024-LE0
103P/Hartley,e,13.6106,219.7493,181.3063,3.474604,0.1521760,0.69371065,39.1846,06/26.0/2024,2000,g  8.5,8.0
# From MPEC 2023-G31
104P/Kowal,e,5.7029,207.2058,227.2636,3.208689,0.1714796,0.66590716,153.6411,06/26.0/2024,2000,g 16.0,4.0
# From MPEC 2024-F34
105P/SingerBrewster,e,9.1681,192.3980,46.3506,3.471888,0.1523546,0.40896421,327.8821,06/26.0/2024,2000,g 11.5,6.0
# From MPEC 2023-UR6
106P/Schuster,e,19.5401,48.8626,353.7771,3.767320,0.1347892,0.59386083,140.4358,06/26.0/2024,2000,g 14.0,4.8
# From MPEC 2015-M77
107P/Wilson-Harrington,e,2.7986,266.7410,95.5086,2.625421,0.2316892,0.63131627,155.5682,06/26.0/2024,2000,g  9.0,4.0
# From MPEC 2022-P82
108P/Ciffreo,e,11.4359,50.2982,354.5092,3.742804,0.1361158,0.55602152,138.7775,06/26.0/2024,2000,g  8.0,12.0
# From  105, 420
109P/Swift-Tuttle,e,113.3796,139.5073,153.2302,26.21258,0.0073441,0.96263187,84.5397,06/26.0/2024,2000,g  4.0,6.0
# From MPEC 2023-KD6
110P/Hartley,e,11.7086,287.4879,167.5117,3.603858,0.1440630,0.31907359,141.3433,06/26.0/2024,2000,g  1.0,12.0
# From MPC 75718
111P/Helin-Roman-Crockett,e,4.2260,89.8119,1.2549,4.152350,0.1164832,0.10715955,128.5643,06/26.0/2024,2000,g  5.0,8.0
# From MPEC 2021-S45
112P/Urata-Niijima,e,24.2082,31.8312,21.5100,3.523368,0.1490277,0.59087104,238.1463,06/26.0/2024,2000,g 14.0,6.0
# From MPEC 2024-JU4
113P/Spitaler,e,5.2876,306.6481,115.6582,3.694685,0.1387836,0.41992481,104.8155,06/26.0/2024,2000,g 13.5,4.0
# From MPEC 2023-A50
114P/Wiseman-Skiff,e,18.3024,271.0250,172.7735,3.541320,0.1478960,0.55600614,240.0678,06/26.0/2024,2000,g 11.5,6.0
# From MPEC 2023-J29
115P/Maury,e,11.6770,176.0138,120.9547,4.272060,0.1116215,0.51751525,159.5227,06/26.0/2024,2000,g 10.5,6.0
# From MPEC 2024-JU4
